      2.10          N: GNSS NAV DATA                        RINEX VERSION / TYPE
fic2rin                                 04/01/2020 00:19:28 PGM / RUN BY / DATE
                                                            END OF HEADER
28 20  4  1  0  0  0.0 7.287869229913e-04-2.842170943040e-12 0.000000000000e+00
    5.000000000000e+00 8.821875000000e+01 4.038382500555e-09-1.620534976804e+00
    4.971399903297e-06 1.850132597610e-02 6.496906280518e-06 5.153674167633e+03
    2.592000000000e+05-8.940696716309e-08 2.067427365745e+00 4.693865776062e-07
    9.780553794752e-01 2.671250000000e+02-1.411460621938e+00-7.926401595014e-09
    6.285976121851e-11 1.000000000000e+00 2.099000000000e+03 0.000000000000e+00
    2.400000000000e+00 0.000000000000e+00-1.117587089539e-08 5.000000000000e+00
    2.520000000000e+05 4.000000000000e+00
16 20  4  1  0  0  0.0-1.414045691490e-04-4.320099833421e-12 0.000000000000e+00
    2.200000000000e+01 6.225000000000e+01 4.046597128442e-09-1.456433447648e+00
    3.203749656677e-06 1.152580091730e-02 6.010755896568e-06 5.153741605759e+03
    2.592000000000e+05 1.713633537292e-07 2.063654644848e+00-9.685754776001e-08
    9.790441336208e-01 2.665312500000e+02 6.199761561069e-01-7.855684363643e-09
    1.435774091468e-10 1.000000000000e+00 2.099000000000e+03 0.000000000000e+00
    2.400000000000e+00 0.000000000000e+00-1.071020960808e-08 2.200000000000e+01
    2.520000000000e+05 4.000000000000e+00
10 20  4  1  0  0  0.0-2.957279793918e-04-1.227817847393e-11 0.000000000000e+00
    3.700000000000e+01-3.643750000000e+01 4.420541276145e-09-3.126075411303e-01
   -2.052634954453e-06 5.499069462530e-03 8.227303624153e-06 5.153666137695e+03
    2.592000000000e+05 6.332993507385e-08-1.169290786935e+00 3.539025783539e-08
    9.649449563449e-01 2.229062500000e+02-2.640632254876e+00-8.009262189347e-09
    8.500354073867e-11 1.000000000000e+00 2.099000000000e+03 0.000000000000e+00
    2.400000000000e+00 0.000000000000e+00 1.862645149231e-09 3.700000000000e+01
    2.520000000000e+05 4.000000000000e+00
21 20  4  1  0  0  0.0-2.020783722401e-05 5.115907697473e-12 0.000000000000e+00
    2.500000000000e+01-6.590625000000e+01 4.962349558920e-09-4.382310376246e-02
   -3.410503268242e-06 2.478370198514e-02 6.208196282387e-06 5.153533416748e+03
    2.592000000000e+05-3.501772880554e-07-2.280001499031e+00-1.918524503708e-07
    9.523650999548e-01 2.625937500000e+02-1.344251339018e+00-8.728935023752e-09
    2.214377952016e-11 1.000000000000e+00 2.099000000000e+03 0.000000000000e+00
    2.400000000000e+00 0.000000000000e+00-1.024454832077e-08 2.500000000000e+01
    2.520000000000e+05 4.000000000000e+00
26 20  4  1  0  0  0.0 1.786784268916e-04 7.503331289627e-12 0.000000000000e+00
    1.900000000000e+01 6.221875000000e+01 4.769841540189e-09-5.422789735588e-01
    3.369525074959e-06 4.723169375211e-03 6.383284926414e-06 5.153596250534e+03
    2.592000000000e+05 7.078051567078e-08 1.942268383777e+00-1.676380634308e-08
    9.472087847850e-01 2.466875000000e+02 2.202086697178e-01-8.298202796312e-09
    3.535861568541e-11 1.000000000000e+00 2.099000000000e+03 0.000000000000e+00
    2.400000000000e+00 0.000000000000e+00 7.450580596924e-09 1.900000000000e+01
    2.520000000000e+05 4.000000000000e+00
29 20  4  1  0  0  0.0-7.016910240054e-05-9.208633855451e-12 0.000000000000e+00
    5.300000000000e+01 4.187500000000e+00 4.210532528438e-09-1.961286065723e+00
    2.942979335785e-07 1.260058023036e-03 4.220753908157e-06 5.153606222153e+03
    2.592000000000e+05-1.303851604462e-08 3.090382422101e+00 6.891787052155e-08
    9.859734762443e-01 3.137500000000e+02 1.873153623727e+00-8.016048186297e-09
    5.607376426879e-11 1.000000000000e+00 2.099000000000e+03 0.000000000000e+00
    2.400000000000e+00 0.000000000000e+00-1.024454832077e-08 5.300000000000e+01
    2.520000000000e+05 4.000000000000e+00
30 20  4  1  0  0  0.0-1.882109791040e-04-8.526512829121e-12 0.000000000000e+00
    2.700000000000e+01 4.218750000000e+01 4.933419782451e-09 1.036155391894e+00
    2.250075340271e-06 4.417736781761e-03 8.329749107361e-06 5.153668703079e+03
    2.592000000000e+05-9.313225746155e-09 9.625644726396e-01 8.381903171539e-08
    9.388652860677e-01 2.072187500000e+02-2.916746182460e+00-8.177840639888e-09
   -2.653681965077e-10 1.000000000000e+00 2.099000000000e+03 0.000000000000e+00
    2.400000000000e+00 0.000000000000e+00 3.725290298462e-09 2.700000000000e+01
    2.520000000000e+05 4.000000000000e+00
19 20  4  1  0  0  0.0-1.781750470400e-04 5.115907697473e-12 0.000000000000e+00
    7.500000000000e+01-5.812500000000e+00 4.304822170265e-09 2.623200276649e-01
   -2.048909664154e-07 9.284343221225e-03 4.192814230919e-06 5.153679931641e+03
    2.592000000000e+05-1.322478055954e-07 3.124425538145e+00-2.421438694000e-08
    9.824789043499e-01 3.129062500000e+02 1.581457413981e+00-8.294631218970e-09
   -1.392915163365e-11 1.000000000000e+00 2.099000000000e+03 0.000000000000e+00
    2.400000000000e+00 0.000000000000e+00-1.536682248116e-08 7.500000000000e+01
    2.520000000000e+05 4.000000000000e+00
15 20  4  1  0  0  0.0-2.410965971649e-04 2.614797267597e-12 0.000000000000e+00
    4.900000000000e+01-1.906250000000e+00 5.282005731026e-09 3.084647051771e+00
   -1.378357410431e-07 1.219401031267e-02 7.435679435730e-06 5.153652908325e+03
    2.592000000000e+05 4.284083843231e-08-2.230390607121e-01-1.229345798492e-07
    9.285258301993e-01 2.180000000000e+02 8.697178824636e-01-8.124624137493e-09
    8.678932940965e-11 1.000000000000e+00 2.099000000000e+03 0.000000000000e+00
    2.400000000000e+00 0.000000000000e+00-1.117587089539e-08 4.900000000000e+01
    2.520000000000e+05 4.000000000000e+00
14 20  4  1  0  0  0.0-2.259295433760e-05 2.501110429876e-12 0.000000000000e+00
    4.900000000000e+01-1.468750000000e+00 4.510187867428e-09-2.592728620548e+00
   -5.774199962616e-08 1.119012734853e-02 7.523223757744e-06 5.153622997284e+03
    2.592000000000e+05 1.154839992523e-07-3.966283099611e-02-5.401670932770e-08
    9.608421426120e-01 2.341562500000e+02-1.924499036161e+00-7.769609349702e-09
    3.678724662220e-11 1.000000000000e+00 2.099000000000e+03 0.000000000000e+00
    2.400000000000e+00 0.000000000000e+00-9.778887033463e-09 4.900000000000e+01
    2.520000000000e+05 4.000000000000e+00
13 20  4  1  0  0  0.0-1.450534909964e-06 2.955857780762e-12 0.000000000000e+00
    4.700000000000e+01 5.000000000000e+00 4.369110562421e-09-3.137080924995e+00
    3.203749656677e-07 4.125285544433e-03 7.681548595428e-06 5.153653568268e+03
    2.592000000000e+05 5.587935447693e-09 6.886186540167e-03 4.656612873077e-08
    9.682572003703e-01 2.354687500000e+02 1.123628556691e+00-7.753180093929e-09
   -3.571577341961e-12 1.000000000000e+00 2.099000000000e+03 0.000000000000e+00
    2.400000000000e+00 0.000000000000e+00-1.117587089539e-08 4.700000000000e+01
    2.520000000000e+05 4.000000000000e+00
11 20  4  1  0  0  0.0-3.180317580700e-04 1.080024958355e-11 0.000000000000e+00
    7.900000000000e+01-5.709375000000e+01 5.746310785481e-09 1.301997823470e+00
   -3.280118107796e-06 1.587694173213e-02 4.431232810020e-06 5.153716897964e+03
    2.592000000000e+05 2.011656761169e-07-2.678186018821e+00-3.688037395477e-07
    9.124746008697e-01 2.664375000000e+02 1.970864017140e+00-8.738935440310e-09
   -7.500312418118e-12 1.000000000000e+00 2.099000000000e+03 0.000000000000e+00
    2.400000000000e+00 0.000000000000e+00-1.257285475731e-08 7.900000000000e+01
    2.520000000000e+05 4.000000000000e+00
12 20  4  1  0  0  0.0 1.343865878880e-04-4.320099833421e-12 0.000000000000e+00
    6.000000000000e+01 7.962500000000e+01 4.106956785521e-09 3.750526528484e-01
    3.915280103683e-06 8.101571002044e-03 7.547438144684e-06 5.153724954605e+03
    2.592000000000e+05-9.126961231232e-08 2.044781569428e+00 5.587935447693e-08
    9.787858817664e-01 2.448437500000e+02 1.129496173352e+00-8.036049019412e-09
    1.857220217820e-11 1.000000000000e+00 2.099000000000e+03 0.000000000000e+00
    2.400000000000e+00 0.000000000000e+00-1.257285475731e-08 6.000000000000e+01
    2.520000000000e+05 4.000000000000e+00
32 20  4  1  0  0  0.0 2.494161017239e-04 8.753886504564e-12 0.000000000000e+00
    3.800000000000e+01-6.562500000000e-01 4.675194740627e-09-1.616734504350e+00
   -4.097819328308e-08 3.783602151088e-03 7.485970854759e-06 5.153692159653e+03
    2.592000000000e+05 5.960464477539e-08-1.269235596071e-01-1.043081283569e-07
    9.571784939606e-01 2.357812500000e+02-2.482238256718e+00-7.978903781941e-09
    1.000041655749e-11 1.000000000000e+00 2.099000000000e+03 0.000000000000e+00
    2.400000000000e+00 0.000000000000e+00 4.656612873077e-10 3.800000000000e+01
    2.520000000000e+05 4.000000000000e+00
31 20  4  1  0  0  0.0-3.307824954391e-05-2.501110429876e-12 0.000000000000e+00
    9.100000000000e+01 2.975000000000e+01 4.500901766339e-09 6.349423230049e-01
    1.700595021248e-06 9.530866518617e-03 8.564442396164e-06 5.153549406052e+03
    2.592000000000e+05 1.359730958939e-07 9.543768112707e-01 1.918524503708e-07
    9.579801789197e-01 2.121875000000e+02 1.251762795116e-01-8.034977546209e-09
   -1.714357124141e-10 1.000000000000e+00 2.099000000000e+03 0.000000000000e+00
    2.400000000000e+00 0.000000000000e+00-1.350417733192e-08 9.100000000000e+01
    2.520000000000e+05 4.000000000000e+00
17 20  4  1  0  0  0.0 2.414444461465e-04 6.366462912410e-12 0.000000000000e+00
    1.330000000000e+02-5.593750000000e+00 4.155887395106e-09-2.429419564356e+00
   -1.173466444016e-07 1.327351341024e-02 3.689900040627e-06 5.153679342270e+03
    2.592000000000e+05 1.247972249985e-07 3.078726755430e+00 1.024454832077e-07
    9.843407294681e-01 3.181875000000e+02-1.644964177052e+00-7.888185717455e-09
    1.067901625246e-10 1.000000000000e+00 2.099000000000e+03 0.000000000000e+00
    2.400000000000e+00 0.000000000000e+00-1.117587089539e-08 1.330000000000e+02
    2.520000000000e+05 4.000000000000e+00
